[{"OBJECT_NAME":"STARLINK-11430 [DTC]","OBJECT_ID":"2025-027K","EPOCH":"2026-03-09T22:03:44.858880","MEAN_MOTION":15.7106524,"ECCENTRICITY":0.00021828,"INCLINATION":42.9995,"RA_OF_ASC_NODE":346.6884,"ARG_OF_PERICENTER":213.853,"MEAN_ANOMALY":146.2199,"EPHEMERIS_TYPE":0,"CLASSIFICATION_TYPE":"U","NORAD_CAT_ID":62916,"ELEMENT_SET_NO":999,"REV_AT_EPOCH":6322,"BSTAR":0.0025723688,"MEAN_MOTION_DOT":0.00347048,"MEAN_MOTION_DDOT":0},{"OBJECT_NAME":"OBJECT E","OBJECT_ID":"2021-035E","EPOCH":"2026-02-24T23:27:52.334784","MEAN_MOTION":15.69205353,"ECCENTRICITY":0.0007182,"INCLINATION":41.4547,"RA_OF_ASC_NODE":257.9148,"ARG_OF_PERICENTER":354.279,"MEAN_ANOMALY":5.7969,"EPHEMERIS_TYPE":0,"CLASSIFICATION_TYPE":"U","NORAD_CAT_ID":63523,"ELEMENT_SET_NO":999,"REV_AT_EPOCH":5075,"BSTAR":0.00060614223,"MEAN_MOTION_DOT":0.00073106,"MEAN_MOTION_DDOT":0}]
